[{"OBJECT_NAME":"OBJECT V","OBJECT_ID":"2023-085V","EPOCH":"2026-03-09T21:44:00.165408","MEAN_MOTION":15.30745852,"ECCENTRICITY":0.00069081,"INCLINATION":97.4843,"RA_OF_ASC_NODE":179.3833,"ARG_OF_PERICENTER":71.0503,"MEAN_ANOMALY":289.1485,"EPHEMERIS_TYPE":0,"CLASSIFICATION_TYPE":"U","NORAD_CAT_ID":57023,"ELEMENT_SET_NO":999,"REV_AT_EPOCH":15149,"BSTAR":0.00067780507,"MEAN_MOTION_DOT":0.00020109,"MEAN_MOTION_DDOT":0},{"OBJECT_NAME":"STARLINK-35820","OBJECT_ID":"2025-270K","EPOCH":"2026-03-09T22:38:50.901216","MEAN_MOTION":15.27584678,"ECCENTRICITY":0.0001503,"INCLINATION":43.0048,"RA_OF_ASC_NODE":54.8394,"ARG_OF_PERICENTER":240.2274,"MEAN_ANOMALY":119.8429,"EPHEMERIS_TYPE":0,"CLASSIFICATION_TYPE":"U","NORAD_CAT_ID":66597,"ELEMENT_SET_NO":999,"REV_AT_EPOCH":1785,"BSTAR":0.0011455077,"MEAN_MOTION_DOT":0.00031399,"MEAN_MOTION_DDOT":0}]
